POLYITAN-1              
1 40042U 14033AJ  26197.60603149  .00010814  00000+0  32851-3 0  9990
2 40042  98.0930 226.6719 0007762  60.1864 300.0148 15.34251009658107
TIGRISAT                
1 40043U 14033AK  26197.42245954  .00000694  00000+0  85612-4 0  9996
2 40043  97.7866 346.7713 0048535 340.2740  19.6596 14.85251528649963
AEROCUBE 6A             
1 40045U 14033AM  26197.40966388  .00003078  00000+0  26003-3 0  9994
2 40045  97.7251   4.0545 0036245 276.8041  82.9058 14.98350636650998
AEROCUBE 6B             
1 40046U 14033AN  26197.45028034  .00002514  00000+0  20521-3 0  9990
2 40046  97.7203   3.9444 0038099 265.6557  94.0312 14.99804588651145
CANX-4                  
1 40055U 14034C   26197.60341848  .00000383  00000+0  56366-4 0  9998
2 40055  98.3081  73.9913 0011386 277.7492  82.2427 14.81312483648888
CANX-5                  
1 40056U 14034D   26197.60150802  .00000384  00000+0  56538-4 0  9999
2 40056  98.3083  74.0347 0011389 278.0090  81.9829 14.81329842639693
UKUBE-1                 
1 40074U 14037F   26197.58322439  .00004241  00000+0  23819-3 0  9997
2 40074  98.4243 203.9543 0003243  85.4998 274.6601 15.13961725653008
BRITE-PL2 (HEWELIUSZ)   
1 40119U 14049B   26197.76279758  .00000479  00000+0  49566-4 0  9992
2 40119  97.9121 309.9960 0014180  17.0924 343.0771 14.94689118645864
AEROCUBE 5C             
1 40965U 15058B   26197.33760625  .00001701  00000+0  15824-3 0  9991
2 40965  64.7647 171.8939 0132402  52.0242 309.2743 14.91580191370002
AEROCUBE 7              
1 40966U 15058C   26197.58435806  .00002715  00000+0  22231-3 0  9995
2 40966  64.7615 152.7227 0122135  50.2313 310.9482 14.95921688370358
FOX-1A (AO-85)          
1 40967U 15058D   26197.32760414  .00001582  00000+0  15016-3 0  9998
2 40967  64.7725 188.4142 0132456  45.3781 315.8042 14.91092003117917
SINOD-D 1               
1 40968U 15058E   26197.89305602  .00002792  00000+0  22756-3 0  9998
2 40968  64.7738 165.8705 0121181  41.5238 319.5003 14.96097928121104
SNAP-3 ALICE            
1 40970U 15058G   26197.65355035  .00103321  00000+0  92029-3 0  9990
2 40970  64.7497   1.4930 0024966 347.2471  12.8044 15.67518998121496
LMRST-SAT               
1 40971U 15058H   26197.35748516  .00001536  00000+0  14712-3 0  9996
2 40971  64.7732 184.7151 0134000  47.3672 313.8644 14.90707153117900
SNAP-3 EDDIE            
1 40972U 15058J   26197.61982376  .00107734  00000+0  90403-3 0  9998
2 40972  64.7407 352.1091 0026109 350.0067  10.0560 15.68916105123631
PROPCUBE 3              
1 40973U 15058K   26197.85643120  .00002334  00000+0  19914-3 0  9994
2 40973  64.7675 159.8251 0125901  48.3690 312.8125 14.94424231119231
BISONSAT                
1 40974U 15058L   26197.64106895  .00007955  00000+0  37730-3 0  9995
2 40974  64.7581  78.3568 0082257  35.2538 325.3988 15.16956157120089
SNAP-3 JIMI             
1 40975U 15058M   26197.80923066  .00004072  00000+0  28098-3 0  9995
2 40975  64.7650 126.0265 0107963  43.7159 317.2444 15.02623175118672
PROPCUBE 1 (FLORA)      
1 40976U 15058N   26197.40637571  .00001269  00000+0  12914-3 0  9990
2 40976  64.7718 204.6689 0132569  49.6229 311.6365 14.89331448120614
SINOD-D 3               
1 40977U 15058P   26197.35742027  .00002131  00000+0  18637-3 0  9995
2 40977  64.7705 184.7165 0121164  46.6877 314.4261 14.94178870119116
RAVAN                   
1 41849U 16067B   26197.68716448  .00037324  00000+0  50618-3 0  9996
2 41849  97.9839  90.7306 0002422 209.8992 150.2123 15.57575989532282
CELTEE 1                
1 41850U 16067C   26197.57107193  .00002745  00000+0  13128-3 0  9991
2 41850  98.0630  66.1419 0002360 108.5425 251.6065 15.19948645530341
OPTICUBE 04             
1 41851U 16067D   26197.83827257  .00000897  00000+0  59841-4 0  9990
2 41851  98.0673  51.6669 0016057  22.5432 337.6498 15.09775775529643
AEROCUBE 8D             
1 41852U 16067E   26197.62451572  .00003960  00000+0  16307-3 0  9994
2 41852  98.0637  70.0375 0004509  52.8321 307.3326 15.24781916530552
AEROCUBE 8C             
1 41853U 16067F   26197.57901483  .00004101  00000+0  16746-3 0  9995
2 41853  98.0512  67.1784 0004070 336.3351  23.7698 15.25035356530543
CORVUS BC2              
1 42846U 17042X   26197.42227782  .00001056  00000+0  75471-4 0  9996
2 42846  97.4091 357.6431 0013332  19.0018 341.1704 15.06459280491460
CORVUS BC1              
1 42847U 17042Y   26197.41367348  .00001369  00000+0  96311-4 0  9992
2 42847  97.4121 358.4677 0011529 355.8065   4.3064 15.06623094491491
MAKERSAT 0              
1 43016U 17073D   26197.43085670  .00011478  00000+0  30313-3 0  9993
2 43016  97.4577  80.1901 0105507 167.8681 192.5141 15.33035166470949
SIRION PATHFINDER-2     
1 43759U 18099B   26197.64576084  .00001892  00000+0  10542-3 0  9994
2 43759  97.4236 246.0049 0008606 186.2645 173.8481 15.14783275417083
CORVUS BC4              
1 43767U 18099K   26197.62635853  .00001806  00000+0  10674-3 0  9992
2 43767  97.4049 239.7463 0006558 254.7281 105.3225 15.12708038416856
M2 PATHFINDER           
1 45727U 20037E   26197.50558598  .00000622  00000+0  48604-4 0  9992
2 45727  97.8141  29.0690 0012797  58.4757 301.7717 15.04793453329905
